[{"OBJECT_NAME":"STARLINK-5023","OBJECT_ID":"2022-119AK","EPOCH":"2026-03-09T22:25:05.467584","MEAN_MOTION":15.08843792,"ECCENTRICITY":0.00014207,"INCLINATION":53.2185,"RA_OF_ASC_NODE":312.8925,"ARG_OF_PERICENTER":88.2756,"MEAN_ANOMALY":271.8398,"EPHEMERIS_TYPE":0,"CLASSIFICATION_TYPE":"U","NORAD_CAT_ID":53919,"ELEMENT_SET_NO":999,"REV_AT_EPOCH":19186,"BSTAR":1.135116e-5,"MEAN_MOTION_DOT":-1.07e-6,"MEAN_MOTION_DDOT":0},{"OBJECT_NAME":"CZ-4C R\/B","OBJECT_ID":"2024-186B","EPOCH":"2026-03-09T22:51:12.491424","MEAN_MOTION":15.07425891,"ECCENTRICITY":0.00475116,"INCLINATION":97.8722,"RA_OF_ASC_NODE":96.5934,"ARG_OF_PERICENTER":122.4234,"MEAN_ANOMALY":238.1602,"EPHEMERIS_TYPE":0,"CLASSIFICATION_TYPE":"U","NORAD_CAT_ID":61572,"ELEMENT_SET_NO":999,"REV_AT_EPOCH":7672,"BSTAR":0.00027865777,"MEAN_MOTION_DOT":4.262e-5,"MEAN_MOTION_DDOT":0}]
